STARLINK-32352          
1 61847U 24202C   26068.46326900 -.00005288  00000+0 -18270-3 0  9993
2 61847  42.9951 227.9627 0000746 262.7330  97.3437 15.27594260 75436
FLOCK 4G-18             
1 62680U 25009BZ  26068.19114186  .00011766  00000+0  44319-3 0  9995
2 62680  97.4054 150.5008 0004100 335.7331  24.3715 15.27241676121267
